PROBA-1                 
1 26958U 01049B   26168.99956861  .00000998  00000+0  68004-4 0  9997
2 26958  97.9594 177.5604 0056473 119.1639 241.5255 15.07495643343749
CUTE-1 (CO-55)          
1 27844U 03031E   26168.52891236  .00000222  00000+0  11503-3 0  9999
2 27844  98.6736 177.0834 0009564 176.9717 183.1521 14.24335893191721
CUBESAT XI-IV (CO-57)   
1 27848U 03031J   26167.95527530  .00000197  00000+0  10575-3 0  9991
2 27848  98.6766 176.2299 0009009 197.6805 162.4061 14.23620738191347
APRIZESAT 4             
1 35684U 09041D   26168.72906586  .00000516  00000+0  68318-4 0  9997
2 35684  98.1413 244.0604 0042369 321.2611  38.5566 14.83879933911441
APRIZESAT 3             
1 35686U 09041F   26168.90147219  .00001554  00000+0  13822-3 0  9991
2 35686  98.2063 322.1593 0062802  65.4571 295.3178 14.96243859916483
PROBA-2                 
1 36037U 09059B   26168.92822880  .00000126  00000+0  39827-4 0  9995
2 36037  98.2450 352.2706 0011948 279.5829  80.4018 14.54862715881639
APRIZESAT 5             
1 37792U 11044E   26168.81794648  .00000902  00000+0  12112-3 0  9998
2 37792  98.2452 101.8762 0052283   2.3178 357.8266 14.81077372798883
APRIZESAT 6             
1 37793U 11044F   26168.68872716  .00000602  00000+0  92142-4 0  9996
2 37793  98.2363  79.1985 0044505  84.4869 336.3688 14.76916508797229
PROBA-V                 
1 39159U 13021A   26168.89228801  .00000042  00000+0  36364-4 0  9996
2 39159  98.3584 147.4641 0005166 121.7820 238.3863 14.23597058681217
APRIZESAT 7             
1 39416U 13066A   26168.82481252  .00000998  00000+0  10411-3 0  9999
2 39416  97.7709 122.0355 0035047 207.1269 152.8120 14.91565344681329
APRIZESAT 8             
1 39425U 13066K   26168.81406071  .00000765  00000+0  88832-4 0  9999
2 39425  97.8220 116.2732 0044416 284.4333  75.1956 14.87653721679763
BUGSAT-1 (TITA)         
1 40014U 14033E   26168.96054700  .00003650  00000+0  19441-3 0  9999
2 40014  98.0432 261.5543 0028007 175.5051 184.6437 15.15590405655952
SAUDISAT 4              
1 40016U 14033G   26168.86278283  .00000524  00000+0  75598-4 0  9997
2 40016  97.7584 314.9740 0046139  71.8619 288.7609 14.79545563646179
APRIZESAT 9             
1 40018U 14033J   26168.88634783  .00000556  00000+0  89137-4 0  9991
2 40018  97.9063 302.0678 0065741 196.8986 163.0034 14.74215371643662
APRIZESAT 10            
1 40019U 14033K   26168.87495206  .00000343  00000+0  62036-4 0  9999
2 40019  97.9651 295.8190 0077387 271.6102  87.6241 14.70882972642354
TECHDEMOSAT-1 (TDS-1)   
1 40076U 14037H   26168.95197403  .00006168  00000+0  35071-3 0  9992
2 40076  98.3814 161.2404 0004523 262.2144  97.8571 15.13302501648348
TECHNOSAT               
1 42829U 17042E   26168.44873474  .00003130  00000+0  22414-3 0  9995
2 42829  97.4288 326.0959 0018967  93.3985 266.9412 15.04963189486742
FLYING LAPTOP           
1 42831U 17042G   26168.91875850  .00002926  00000+0  23192-3 0  9996
2 42831  97.4687 324.4230 0019572 119.1525 241.1661 15.01150240486566
HAWK-A                  
1 43765U 18099H   26168.61063549  .00005015  00000+0  20302-3 0  9999
2 43765  97.3909 220.8412 0033104 284.3223  75.4340 15.24646994413166
HAWK-B                  
1 43794U 18099AN  26168.10700359  .00004680  00000+0  20062-3 0  9992
2 43794  97.3960 219.7593 0030487 305.2659  54.5726 15.22825315413024
HAWK-C                  
1 43799U 18099AT  26168.71718561  .00005811  00000+0  21022-3 0  9992
2 43799  97.3887 221.8611 0038736 283.8302  75.8629 15.28108853413994
SALSAT                  
1 46495U 20068K   26168.53797512  .00006219  00000+0  21821-3 0  9990
2 46495  97.8847 171.6239 0008040 306.6544  53.3955 15.29803905315418
HAWK-2C                 
1 47502U 21006CT  26168.60869416  .00005190  00000+0  15671-3 0  9997
2 47502  97.2273 212.9102 0006738 184.1781 175.9408 15.34667560299569
HAWK-2A                 
1 47505U 21006CW  26168.67638491  .00005345  00000+0  16128-3 0  9994
2 47505  97.2313 213.6547 0006172 186.8818 173.2342 15.34683356299570
HAWK-2B                 
1 47508U 21006CZ  26168.67189265  .00005906  00000+0  17741-3 0  9992
2 47508  97.2185 211.9813 0006756 185.2395 174.8779 15.34772024299570
HAWK-3B                 
1 48931U 21059BE  26168.51552448  .00036660  00000+0  31108-3 0  9995
2 48931  97.6650   5.2542 0003195 330.6002  29.5079 15.69577683277904
HAWK-3C                 
1 48948U 21059BX  26168.51519967  .00034353  00000+0  29163-3 0  9997
2 48948  97.6772  10.9402 0003528 331.2504  28.8563 15.69577806277906
HAWK-3A                 
1 48957U 21059CG  26168.51506151  .00036520  00000+0  30965-3 0  9998
2 48957  97.6717   8.1459 0003696 333.9883  26.1192 15.69595385277902
HAWK-5C                 
1 52754U 22057Y   26168.88261496  .00015924  00000+0  27174-3 0  9990
2 52754  97.6603 328.5936 0004968  81.0460 279.1354 15.51414813226451
HAWK-5B                 
1 52756U 22057AA  26168.43096569  .00015212  00000+0  25978-3 0  9990
2 52756  97.6610 326.4621 0005655  75.3473 284.8405 15.51400967226380
